KESTREL EYE IIM (KE2M)  
1 42982U 98067NE  21058.26345978  .00061269  00000-0  28316-3 0  9992
2 42982  51.6321  50.9366 0003774  20.0629 340.0521 15.82900377191237
DELLINGR (RBLE)         
1 43021U 98067NJ  21058.67646293  .00064417  00000-0  25436-3 0  9994
2 43021  51.6301  44.7154 0001770  35.6657 324.4465 15.86186332187120
TEMPEST-D               
1 43547U 98067NV  21058.49667218  .00099284  00000-0  59769-3 0  9993
2 43547  51.6334  96.3201 0003672 332.3738  27.7066 15.76904472149507
RADSAT-G                
1 43553U 98067PB  21058.81966333  .00150615  19855-4  40926-3 0  9999
2 43553  51.6355  59.4402 0004808  32.4749 327.6553 15.93879137150459
AEROCUBE 12A            
1 43556U 18046C   21058.44666338  .00003301  00000-0  12032-3 0  9996
2 43556  51.6422 319.3766 0008462 126.0707 234.1058 15.31065623146425
AEROCUBE 12B            
1 43557U 18046D   21058.43690578  .00001931  00000-0  76487-4 0  9991
2 43557  51.6420 320.7869 0008602 124.7232 235.4560 15.30578021146352
LEMUR-2-VU              
1 43558U 18046E   21058.42108179  .00004138  00000-0  13974-3 0  9995
2 43558  51.6416 313.3651 0007766 129.5494 230.6175 15.32900425146491
LEMUR-2-ALEXANDER       
1 43559U 18046F   21058.74945169  .00004098  00000-0  13757-3 0  9993
2 43559  51.6415 311.0768 0007730 130.5845 229.5810 15.33115838146331
LEMUR-2-YUASA           
1 43560U 18046G   21058.12452382  .00005335  00000-0  17710-3 0  9995
2 43560  51.6407 315.1310 0007842 140.9820 219.1728 15.32835680146442
LEMUR-2-TOMHENDERSON    
1 43561U 18046H   21058.31356747  .00005080  00000-0  17099-3 0  9992
2 43561  51.6415 314.8799 0007930 140.7513 219.4045 15.32491472146020
1998-067PN              
1 43638U 98067PN  21058.45535985  .00032011  00000-0  22264-3 0  9990
2 43638  51.6328  93.7479 0001779 334.8943  25.1969 15.74087263136698
1998-067PP              
1 43639U 98067PP  21058.29996274  .00363446  69403-4  59180-3 0  9997
2 43639  51.6228  66.0929 0004388  46.0150 314.1222 16.02766841137043
STARS-ME                
1 43640U 98067PQ  21058.47594002  .00056939  00000-0  30722-3 0  9993
2 43640  51.6303  84.7503 0002572 330.9246  29.1612 15.79576138136819
CATSAT-2                
1 44029U 98067PV  21058.45233927  .00127130  00000-0  45232-3 0  9993
2 44029  51.6372  89.2995 0004333  11.3218 348.7884 15.88035506118650
DELPHINI                
1 44030U 98067PW  21058.43182514  .00366282  68487-4  67640-3 0  9995
2 44030  51.6235  82.0015 0005747  35.2309 324.9080 16.00604841118710
UNITE                   
1 44031U 98067PX  21058.51314856  .00027395  00000-0  22490-3 0  9997
2 44031  51.6365 110.0314 0002846 337.9722  22.1153 15.70238060118357
CATSAT-1                
1 44033U 98067PZ  21058.45164734  .00147645  00000-0  52773-3 0  9998
2 44033  51.6369  89.3043 0004793  14.1655 345.9483 15.87876147118569
RAAVANA-1               
1 44329U 98067QE  21058.46549245  .00032948  00000-0  29945-3 0  9995
2 44329  51.6358 128.5655 0003859 254.6264 105.4306 15.67647348 96856
UGUISU                  
1 44330U 98067QF  21058.43666862  .00030607  00000-0  28144-3 0  9999
2 44330  51.6340 129.0575 0003806 253.1861 106.8718 15.67398815 96826
NEPALISAT-1             
1 44331U 98067QG  21058.45731902  .00032838  00000-0  29880-3 0  9996
2 44331  51.6343 128.4459 0003938 258.2655 101.7899 15.67620154 96847
SPOOQY-1                
1 44332U 98067QH  21058.49324697  .00027321  00000-0  25395-3 0  9998
2 44332  51.6351 128.7111 0003251 262.1962  97.8665 15.67197835 96805
RED-EYE 1 (PINOT)       
1 44364U 98067QJ  21058.64876365  .00008949  00000-0  12627-3 0  9993
2 44364  51.6403 144.8700 0006082 192.9077 167.1760 15.57405905 95066
IOD-1 GEMS              
1 44385U 98067QK  21058.84355861  .00157627  00000-0  64181-3 0  9991
2 44385  51.6330 113.0376 0003441   3.0701 357.0323 15.85183549 94553
SWIATOWID               
1 44426U 98067QL  21058.87522171  .00371797  67129-4  85426-3 0  9990
2 44426  51.6312 106.7633 0005618  14.5139 156.3731 15.96730137 94651
KRAKSAT                 
1 44427U 98067QM  21058.62347719  .00023708  00000-0  26676-3 0  9996
2 44427  51.6413 136.9088 0002719 191.3649 313.9957 15.62449638 94277
