OBJECT_NAME,OBJECT_ID,EPOCH,MEAN_MOTION,ECCENTRICITY,INCLINATION,RA_OF_ASC_NODE,ARG_OF_PERICENTER,MEAN_ANOMALY,EPHEMERIS_TYPE,CLASSIFICATION_TYPE,NORAD_CAT_ID,ELEMENT_SET_NO,REV_AT_EPOCH,BSTAR,MEAN_MOTION_DOT,MEAN_MOTION_DDOT
KESTREL EYE IIM (KE2M),1998-067NE,2021-02-27T06:19:22.924992,15.82900377,.0003774,51.6321,50.9366,20.0629,340.0521,0,U,42982,999,19123,.28316E-3,.61269E-3,0
DELLINGR (RBLE),1998-067NJ,2021-02-27T16:14:06.397152,15.86186332,.000177,51.6301,44.7154,35.6657,324.4465,0,U,43021,999,18712,.25436E-3,.64417E-3,0
TEMPEST-D,1998-067NV,2021-02-27T11:55:12.476352,15.76904472,.0003672,51.6334,96.3201,332.3738,27.7066,0,U,43547,999,14950,.59769E-3,.99284E-3,0
RADSAT-G,1998-067PB,2021-02-27T19:40:18.911712,15.93879137,.0004808,51.6355,59.4402,32.4749,327.6553,0,U,43553,999,15045,.40926E-3,.150615E-2,.19855E-4
AEROCUBE 12A,2018-046C,2021-02-27T10:43:11.716032,15.31065623,.0008462,51.6422,319.3766,126.0707,234.1058,0,U,43556,999,14642,.12032E-3,.3301E-4,0
AEROCUBE 12B,2018-046D,2021-02-27T10:29:08.659392,15.30578021,.0008602,51.6420,320.7869,124.7232,235.4560,0,U,43557,999,14635,.76487E-4,.1931E-4,0
LEMUR-2-VU,2018-046E,2021-02-27T10:06:21.466656,15.32900425,.0007766,51.6416,313.3651,129.5494,230.6175,0,U,43558,999,14649,.13974E-3,.4138E-4,0
LEMUR-2-ALEXANDER,2018-046F,2021-02-27T17:59:12.626016,15.33115838,.000773,51.6415,311.0768,130.5845,229.5810,0,U,43559,999,14633,.13757E-3,.4098E-4,0
LEMUR-2-YUASA,2018-046G,2021-02-27T02:59:18.858048,15.32835680,.0007842,51.6407,315.1310,140.9820,219.1728,0,U,43560,999,14644,.1771E-3,.5335E-4,0
LEMUR-2-TOMHENDERSON,2018-046H,2021-02-27T07:31:32.229408,15.32491472,.000793,51.6415,314.8799,140.7513,219.4045,0,U,43561,999,14602,.17099E-3,.508E-4,0
1998-067PN,1998-067PN,2021-02-27T10:55:43.091040,15.74087263,.0001779,51.6328,93.7479,334.8943,25.1969,0,U,43638,999,13669,.22264E-3,.32011E-3,0
1998-067PP,1998-067PP,2021-02-27T07:11:56.780736,16.02766841,.0004388,51.6228,66.0929,46.0150,314.1222,0,U,43639,999,13704,.5918E-3,.363446E-2,.69403E-4
STARS-ME,1998-067PQ,2021-02-27T11:25:21.217728,15.79576138,.0002572,51.6303,84.7503,330.9246,29.1612,0,U,43640,999,13681,.30722E-3,.56939E-3,0
CATSAT-2,1998-067PV,2021-02-27T10:51:22.112928,15.88035506,.0004333,51.6372,89.2995,11.3218,348.7884,0,U,44029,999,11865,.45232E-3,.12713E-2,0
DELPHINI,1998-067PW,2021-02-27T10:21:49.692096,16.00604841,.0005747,51.6235,82.0015,35.2309,324.9080,0,U,44030,999,11871,.6764E-3,.366282E-2,.68487E-4
UNITE,1998-067PX,2021-02-27T12:18:56.035584,15.70238060,.0002846,51.6365,110.0314,337.9722,22.1153,0,U,44031,999,11835,.2249E-3,.27395E-3,0
CATSAT-1,1998-067PZ,2021-02-27T10:50:22.330176,15.87876147,.0004793,51.6369,89.3043,14.1655,345.9483,0,U,44033,999,11856,.52773E-3,.147645E-2,0
RAAVANA-1,1998-067QE,2021-02-27T11:10:18.547680,15.67647348,.0003859,51.6358,128.5655,254.6264,105.4306,0,U,44329,999,9685,.29945E-3,.32948E-3,0
UGUISU,1998-067QF,2021-02-27T10:28:48.168768,15.67398815,.0003806,51.6340,129.0575,253.1861,106.8718,0,U,44330,999,9682,.28144E-3,.30607E-3,0
NEPALISAT-1,1998-067QG,2021-02-27T10:58:32.363328,15.67620154,.0003938,51.6343,128.4459,258.2655,101.7899,0,U,44331,999,9684,.2988E-3,.32838E-3,0
SPOOQY-1,1998-067QH,2021-02-27T11:50:16.538208,15.67197835,.0003251,51.6351,128.7111,262.1962,97.8665,0,U,44332,999,9680,.25395E-3,.27321E-3,0
RED-EYE 1 (PINOT),1998-067QJ,2021-02-27T15:34:13.179360,15.57405905,.0006082,51.6403,144.8700,192.9077,167.1760,0,U,44364,999,9506,.12627E-3,.8949E-4,0
IOD-1 GEMS,1998-067QK,2021-02-27T20:14:43.463904,15.85183549,.0003441,51.6330,113.0376,3.0701,357.0323,0,U,44385,999,9455,.64181E-3,.157627E-2,0
SWIATOWID,1998-067QL,2021-02-27T21:00:19.155744,15.96730137,.0005618,51.6312,106.7633,14.5139,156.3731,0,U,44426,999,9465,.85426E-3,.371797E-2,.67129E-4
KRAKSAT,1998-067QM,2021-02-27T14:57:48.429216,15.62449638,.0002719,51.6413,136.9088,191.3649,313.9957,0,U,44427,999,9427,.26676E-3,.23708E-3,0
